[{"OBJECT_NAME":"FLOCK 4G-13","OBJECT_ID":"2025-009N","EPOCH":"2026-03-09T16:57:12.071808","MEAN_MOTION":15.32770015,"ECCENTRICITY":0.0003801,"INCLINATION":97.4019,"RA_OF_ASC_NODE":151.0918,"ARG_OF_PERICENTER":292.7207,"MEAN_ANOMALY":67.3633,"EPHEMERIS_TYPE":0,"CLASSIFICATION_TYPE":"U","NORAD_CAT_ID":62621,"ELEMENT_SET_NO":999,"REV_AT_EPOCH":6370,"BSTAR":0.0016695386,"MEAN_MOTION_DOT":0.00053076,"MEAN_MOTION_DDOT":0},{"OBJECT_NAME":"STARLINK-33845","OBJECT_ID":"2025-071C","EPOCH":"2026-03-09T12:05:36.329280","MEAN_MOTION":15.30185595,"ECCENTRICITY":0.00012685,"INCLINATION":53.1585,"RA_OF_ASC_NODE":140.633,"ARG_OF_PERICENTER":85.2768,"MEAN_ANOMALY":274.8377,"EPHEMERIS_TYPE":0,"CLASSIFICATION_TYPE":"U","NORAD_CAT_ID":63495,"ELEMENT_SET_NO":999,"REV_AT_EPOCH":5272,"BSTAR":0.00078172758,"MEAN_MOTION_DOT":0.00022854,"MEAN_MOTION_DDOT":0}]
